NORAD_CAT_ID,OBJECT_NAME,OBJECT_TYPE,EPOCH,MEAN_MOTION,ECCENTRICITY,INCLINATION,RA_OF_ASC_NODE,ARG_OF_PERICENTER,MEAN_ANOMALY,BSTAR,MEAN_MOTION_DOT,MEAN_MOTION_DDOT,TLE_LINE0,TLE_LINE1,TLE_LINE2,SEMIMAJOR_AXIS,PERIOD,APOGEE,PERIGEE,DECAYED
49416.0,STARLINK-3133,PAYLOAD,2024-04-23 20:27:05,15.08851184,0.0001114,53.2168,63.4715,129.1832,230.9259,0.0010861,0.00017045,0.0,0 STARLINK-3133,1 49416U 21104J   24114.85215272  .00017045  00000-0  10861-2 0  9991,2 49416  53.2168  63.4715 0001114 129.1832 230.9259 15.08851184136348,6917.846,95.437,540.482,538.941,0.0
49416.0,STARLINK-3133,PAYLOAD,2024-04-24 05:59:24,15.08880736,0.0001362,53.2168,61.6894,113.3128,246.8008,0.0022589,0.00035886,0.0,0 STARLINK-3133,1 49416U 21104J   24115.24958561  .00035886  00000-0  22589-2 0  9993,2 49416  53.2168  61.6894 0001362 113.3128 246.8008 15.08880736136404,6917.756,95.435,540.563,538.679,0.0
49416.0,STARLINK-3133,PAYLOAD,2024-04-25 02:39:25,15.0884983,0.0001327,53.2179,57.8257,91.7119,268.4025,0.0017741,0.00028067,0.0,0 STARLINK-3133,1 49416U 21104J   24116.11071355  .00028067  00000-0  17741-2 0  9994,2 49416  53.2179  57.8257 0001327  91.7119 268.4025 15.08849830136539,6917.85,95.437,540.633,538.797,0.0
49416.0,STARLINK-3133,PAYLOAD,2024-04-26 02:30:12,15.08851589,0.0001644,53.219,53.3625,96.9746,263.1433,0.0006341,9.821e-05,0.0,0 STARLINK-3133,1 49416U 21104J   24117.10431224  .00009821  00000-0  63410-3 0  9991,2 49416  53.2190  53.3625 0001644  96.9746 263.1433 15.08851589136682,6917.845,95.437,540.847,538.573,0.0
49416.0,STARLINK-3133,PAYLOAD,2024-04-27 02:20:59,15.08858519,0.000158,53.2185,48.9003,93.1273,266.99,0.0006208,9.611e-05,0.0,0 STARLINK-3133,1 49416U 21104J   24118.09790632  .00009611  00000-0  62080-3 0  9990,2 49416  53.2185  48.9003 0001580  93.1273 266.9900 15.08858519136836,6917.824,95.436,540.782,538.596,0.0
49416.0,STARLINK-3133,PAYLOAD,2024-04-27 11:53:17,15.08850681,0.0001597,53.2175,47.1107,66.6352,293.4808,0.00029395,4.395e-05,0.0,0 STARLINK-3133,1 49416U 21104J   24118.49534720  .00004395  00000-0  29395-3 0  9994,2 49416  53.2175  47.1107 0001597  66.6352 293.4808 15.08850681136892,6917.848,95.437,540.818,538.608,0.0
49416.0,STARLINK-3133,PAYLOAD,2024-04-28 03:47:09,15.08835308,0.0001561,53.2182,44.1482,106.505,253.6114,0.00021896,3.198e-05,0.0,0 STARLINK-3133,1 49416U 21104J   24119.15775354  .00003198  00000-0  21896-3 0  9996,2 49416  53.2182  44.1482 0001561 106.5050 253.6114 15.08835308136991,6917.895,95.438,540.84,538.68,0.0
49416.0,STARLINK-3133,PAYLOAD,2024-04-28 11:44:05,15.08835385,0.0001589,53.2182,42.6616,104.6977,255.4191,0.00033988,5.125e-05,0.0,0 STARLINK-3133,1 49416U 21104J   24119.48895615  .00005125  00000-0  33988-3 0  9992,2 49416  53.2182  42.6616 0001589 104.6977 255.4191 15.08835385135944,6917.894,95.438,540.859,538.66,0.0
49416.0,STARLINK-3133,PAYLOAD,2024-04-28 22:51:48,15.08832393,0.0001725,53.2191,40.5818,109.3753,250.7426,0.00018429,2.646e-05,0.0,0 STARLINK-3133,1 49416U 21104J   24119.95264039  .00002646  00000-0  18429-3 0  9992,2 49416  53.2191  40.5818 0001725 109.3753 250.7426 15.08832393136015,6917.904,95.438,540.962,538.575,0.0
49416.0,STARLINK-3133,PAYLOAD,2024-04-29 03:37:57,15.08835826,0.0001752,53.2192,39.69,109.4291,250.689,0.0002656,3.941e-05,0.0,0 STARLINK-3133,1 49416U 21104J   24120.15136037  .00003941  00000-0  26560-3 0  9996,2 49416  53.2192  39.6900 0001752 109.4291 250.6890 15.08835826137148,6917.893,95.438,540.97,538.546,0.0
49416.0,STARLINK-3133,PAYLOAD,2024-04-29 11:34:53,15.08833634,0.0001621,53.2185,38.1973,91.2719,268.8459,0.00016445,2.33e-05,0.0,0 STARLINK-3133,1 49416U 21104J   24120.48256216  .00002330  00000-0  16445-3 0  9996,2 49416  53.2185  38.1973 0001621  91.2719 268.8459 15.08833634136092,6917.9,95.438,540.886,538.643,0.0
49416.0,STARLINK-3133,PAYLOAD,2024-04-30 11:25:40,15.08839062,0.0001654,53.2189,33.7423,88.7526,271.3655,0.00013744,1.9e-05,0.0,0 STARLINK-3133,1 49416U 21104J   24121.47616337  .00001900  00000-0  13744-3 0  9991,2 49416  53.2189  33.7423 0001654  88.7526 271.3655 15.08839062137347,6917.883,95.438,540.892,538.604,0.0
49416.0,STARLINK-3133,PAYLOAD,2024-04-30 22:33:22,15.08842111,0.0001802,53.2187,31.657,88.96,271.1598,0.00017678,2.527e-05,0.0,0 STARLINK-3133,1 49416U 21104J   24121.93984091  .00002527  00000-0  17678-3 0  9993,2 49416  53.2187  31.6570 0001802  88.9600 271.1598 15.08842111136314,6917.874,95.437,540.986,538.492,0.0
49416.0,STARLINK-3133,PAYLOAD,2024-05-01 11:16:27,15.08847966,0.0001253,53.2161,29.2778,94.0706,266.043,0.00022905,3.36e-05,0.0,0 STARLINK-3133,1 49416U 21104J   24122.46975844  .00003360  00000-0  22905-3 0  9993,2 49416  53.2161  29.2778 0001253  94.0706 266.0430 15.08847966136393,6917.856,95.437,540.588,538.854,0.0
49416.0,STARLINK-3133,PAYLOAD,2024-05-02 03:10:17,15.08857364,0.0001362,53.2164,26.303,95.2315,264.8832,0.00033771,5.093e-05,0.0,0 STARLINK-3133,1 49416U 21104J   24123.13215265  .00005093  00000-0  33771-3 0  9990,2 49416  53.2164  26.3030 0001362  95.2315 264.8832 15.08857364137593,6917.827,95.436,540.635,538.75,0.0
49416.0,STARLINK-3133,PAYLOAD,2024-05-02 11:07:13,15.08851878,0.0001303,53.2168,24.8191,80.7306,279.3834,0.00021631,3.157e-05,0.0,0 STARLINK-3133,1 49416U 21104J   24123.46335341  .00003157  00000-0  21631-3 0  9995,2 49416  53.2168  24.8191 0001303  80.7306 279.3834 15.08851878137645,6917.844,95.437,540.61,538.808,0.0
49416.0,STARLINK-3133,PAYLOAD,2024-05-02 20:39:32,15.08845614,0.0001502,53.2163,23.0327,99.2232,260.8931,0.00010866,1.442e-05,0.0,0 STARLINK-3133,1 49416U 21104J   24123.86079498  .00001442  00000-0  10866-3 0  9990,2 49416  53.2163  23.0327 0001502  99.2232 260.8931 15.08845614137707,6917.863,95.437,540.767,538.689,0.0
49416.0,STARLINK-3133,PAYLOAD,2024-05-03 03:01:04,15.08856463,0.0001297,53.2166,21.8423,93.7399,266.3742,0.00029953,4.484e-05,0.0,0 STARLINK-3133,1 49416U 21104J   24124.12574966  .00004484  00000-0  29953-3 0  9996,2 49416  53.2166  21.8423 0001297  93.7399 266.3742 15.08856463137746,6917.83,95.437,540.592,538.798,0.0
49416.0,STARLINK-3133,PAYLOAD,2024-05-03 20:30:20,15.08824129,0.0001334,53.218,18.5719,86.2445,273.8699,-0.00019868,-3.447e-05,0.0,0 STARLINK-3133,1 49416U 21104J   24124.85440486 -.00003447  00000-0 -19868-3 0  9999,2 49416  53.2180  18.5719 0001334  86.2445 273.8699 15.08824129137854,6917.929,95.439,540.717,538.871,0.0
49416.0,STARLINK-3133,PAYLOAD,2024-05-03 22:05:43,15.08823569,0.0001339,53.2179,18.2745,88.1261,271.9884,-0.00018189,-3.18e-05,0.0,0 STARLINK-3133,1 49416U 21104J   24124.92064626 -.00003180  00000-0 -18189-3 0  9994,2 49416  53.2179  18.2745 0001339  88.1261 271.9884 15.08823569136761,6917.931,95.439,540.722,538.869,0.0
49416.0,STARLINK-3133,PAYLOAD,2024-05-04 20:21:08,15.08840971,0.0001307,53.218,14.1126,77.2793,282.8345,0.00048666,7.466e-05,0.0,0 STARLINK-3133,1 49416U 21104J   24125.84801145  .00007466  00000-0  48666-3 0  9993,2 49416  53.2180  14.1126 0001307  77.2793 282.8345 15.08840971138003,6917.877,95.437,540.647,538.838,0.0
49416.0,STARLINK-3133,PAYLOAD,2024-05-04 23:31:54,15.08850664,0.000128,53.2179,13.5187,75.7125,284.4009,0.00098271,0.00015391,0.0,0 STARLINK-3133,1 49416U 21104J   24125.98049158  .00015391  00000-0  98271-3 0  9999,2 49416  53.2179  13.5187 0001280  75.7125 284.4009 15.08850664138020,6917.848,95.437,540.598,538.827,0.0
49416.0,STARLINK-3133,PAYLOAD,2024-05-05 20:11:54,15.08863692,0.0001314,53.2182,9.6544,79.5725,280.5415,0.00066985,0.00010396,0.0,0 STARLINK-3133,1 49416U 21104J   24126.84160351  .00010396  00000-0  66985-3 0  9991,2 49416  53.2182   9.6544 0001314  79.5725 280.5415 15.08863692138150,6917.808,95.436,540.582,538.764,0.0
49416.0,STARLINK-3133,PAYLOAD,2024-05-05 23:22:40,15.08869667,0.0001289,53.2182,9.0597,80.1371,279.9767,0.00083696,0.00013068,0.0,0 STARLINK-3133,1 49416U 21104J   24126.97408081  .00013068  00000-0  83696-3 0  9997,2 49416  53.2182   9.0597 0001289  80.1371 279.9767 15.08869667137078,6917.79,95.436,540.546,538.763,0.0
49416.0,STARLINK-3133,PAYLOAD,2024-05-06 20:02:41,15.08850247,0.0001255,53.2179,5.1946,101.0569,259.0564,0.00035219,5.323e-05,0.0,0 STARLINK-3133,1 49416U 21104J   24127.83520061  .00005323  00000-0  35219-3 0  9999,2 49416  53.2179   5.1946 0001255 101.0569 259.0564 15.08850247138309,6917.849,95.437,540.582,538.846,0.0
49416.0,STARLINK-3133,PAYLOAD,2024-05-06 21:38:04,15.08848362,0.0001337,53.2181,4.8976,92.0283,268.0863,0.00033087,4.983e-05,0.0,0 STARLINK-3133,1 49416U 21104J   24127.90144135  .00004983  00000-0  33087-3 0  9993,2 49416  53.2181   4.8976 0001337  92.0283 268.0863 15.08848362137210,6917.855,95.437,540.645,538.795,0.0
49416.0,STARLINK-3133,PAYLOAD,2024-05-07 08:45:46,15.08843008,0.0001451,53.2181,2.8157,87.3204,272.7954,0.0001325,1.822e-05,0.0,0 STARLINK-3133,1 49416U 21104J   24128.36511936  .00001822  00000-0  13250-3 0  9990,2 49416  53.2181   2.8157 0001451  87.3204 272.7954 15.08843008138380,6917.871,95.437,540.74,538.732,0.0
49416.0,STARLINK-3133,PAYLOAD,2024-05-07 19:53:28,15.08829116,0.0001635,53.2179,0.7351,88.6945,271.4235,0.00054524,8.398e-05,0.0,0 STARLINK-3133,1 49416U 21104J   24128.82880778  .00008398  00000-0  54524-3 0  9998,2 49416  53.2179   0.7351 0001635  88.6945 271.4235 15.08829116138450,6917.914,95.438,540.91,538.648,0.0
49416.0,STARLINK-3133,PAYLOAD,2024-05-07 21:28:52,15.08831015,0.000147,53.2185,0.4369,89.0244,271.0917,0.00017927,2.566e-05,0.0,0 STARLINK-3133,1 49416U 21104J   24128.89504672  .00002566  00000-0  17927-3 0  9998,2 49416  53.2185   0.4369 0001470  89.0244 271.0917 15.08831015137360,6917.908,95.438,540.79,538.756,0.0
49416.0,STARLINK-3133,PAYLOAD,2024-05-08 14:58:06,15.08842941,0.0001194,53.2171,357.1639,94.8287,265.2842,0.00026757,3.973e-05,0.0,0 STARLINK-3133,1 49416U 21104J   24129.62368683  .00003973  00000-0  26757-3 0  9994,2 49416  53.2171 357.1639 0001194  94.8287 265.2842 15.08842941137475,6917.871,95.437,540.562,538.91,0.0
